[{"OBJECT_NAME":"ICEYE-X7","OBJECT_ID":"2020-068L","EPOCH":"2026-03-09T22:52:28.702272","MEAN_MOTION":15.29152508,"ECCENTRICITY":0.00068409,"INCLINATION":97.7412,"RA_OF_ASC_NODE":31.2076,"ARG_OF_PERICENTER":332.3045,"MEAN_ANOMALY":27.7829,"EPHEMERIS_TYPE":0,"CLASSIFICATION_TYPE":"U","NORAD_CAT_ID":46496,"ELEMENT_SET_NO":999,"REV_AT_EPOCH":29961,"BSTAR":0.0005654802,"MEAN_MOTION_DOT":0.00015947,"MEAN_MOTION_DDOT":0},{"OBJECT_NAME":"STARLINK-36044","OBJECT_ID":"2025-278J","EPOCH":"2026-03-09T10:30:08.487936","MEAN_MOTION":15.27573924,"ECCENTRICITY":0.00023188,"INCLINATION":43.0057,"RA_OF_ASC_NODE":115.5178,"ARG_OF_PERICENTER":266.2452,"MEAN_ANOMALY":93.8135,"EPHEMERIS_TYPE":0,"CLASSIFICATION_TYPE":"U","NORAD_CAT_ID":66799,"ELEMENT_SET_NO":999,"REV_AT_EPOCH":1517,"BSTAR":0.00068344727,"MEAN_MOTION_DOT":0.00018589,"MEAN_MOTION_DDOT":0}]
